SL-16 R/B               
1 24298U 96051B   25307.67803076 -.00000085  00000+0 -19494-4 0  9995
2 24298  70.7590  81.9602 0017518 311.2268  48.7341 14.12392263503857
ORBVIEW 2 (SEASTAR)     
1 24883U 97037A   25307.67031795  .00000355  00000+0  13981-3 0  9993
2 24883  98.8444 103.7671 0003221  78.8867 281.2680 14.35370731490397
SL-16 R/B               
1 25400U 98043G   25307.78669134  .00000097  00000+0  59689-4 0  9992
2 25400  98.8056 255.4000 0010334  25.4558 334.7128 14.26010347421042
SL-16 R/B               
1 25407U 98045B   25307.77470123  .00000247  00000+0  14873-3 0  9990
2 25407  71.0102  86.3651 0008982 229.0231 131.0116 14.16167084409279
ISS (ZARYA)             
1 25544U 98067A   25307.51956698  .00010367  00000+0  19118-3 0  9995
2 25544  51.6338 336.6423 0004996  12.8919 347.2196 15.49724627536770
CZ-4B R/B               
1 25732U 99025C   25306.04139301  .00000095  00000+0  66958-4 0  9992
2 25732  98.6834 348.2190 0036933 353.7818  64.6211 14.18228157370071
OKEAN-O                 
1 25860U 99039A   25306.43020771  .00000915  00000+0  12772-3 0  9997
2 25860  97.9663   2.4704 0001735  75.1822 284.9582 14.80056834415569
SL-16 R/B               
1 25861U 99039B   25306.39670463  .00000768  00000+0  10473-3 0  9994
2 25861  98.0186   0.5340 0013821 314.2602  45.7475 14.81497610418018
DELTA 2 R/B             
1 25876U 99041E   25306.13543551  .00000908  00000+0  18505-3 0  9992
2 25876  51.7633  90.5073 0504688 332.1011  25.3673 14.11257682345017
HELIOS 1B               
1 25977U 99064A   25307.57742866  .00002103  00000+0  24118-3 0  9994
2 25977  98.1760 201.0876 0002503  96.1847 263.9653 14.87034214666514
TERRA                   
1 25994U 99068A   25307.77182934  .00000585  00000+0  12866-3 0  9992
2 25994  97.9806   0.8739 0001733 186.5503 282.9243 14.60882226376699
SL-16 R/B               
1 26070U 00006B   25307.54555035  .00000287  00000+0  17029-3 0  9998
2 26070  71.0042   3.0696 0016256   5.5504 354.5796 14.15799518330706
