CCSDS_OMM_VERS = 2.0
CREATION_DATE  = 
ORIGINATOR     = 

OBJECT_NAME    = SL-16 R/B
OBJECT_ID      = 1996-051B
CENTER_NAME    = EARTH
REF_FRAME      = TEME
TIME_SYSTEM    = UTC
MEAN_ELEMENT_THEORY = SGP/SGP4

EPOCH          = 2025-11-03T16:16:21.857664
MEAN_MOTION    = 14.12392263
ECCENTRICITY   = .0017518
INCLINATION    = 70.7590
RA_OF_ASC_NODE = 81.9602
ARG_OF_PERICENTER = 311.2268
MEAN_ANOMALY   = 48.7341

EPHEMERIS_TYPE = 0
CLASSIFICATION_TYPE = U
NORAD_CAT_ID   = 24298
ELEMENT_SET_NO = 999
REV_AT_EPOCH   = 50385
BSTAR          = -.19494E-4
MEAN_MOTION_DOT = -.85E-6
MEAN_MOTION_DDOT = 0

CCSDS_OMM_VERS = 2.0
CREATION_DATE  = 
ORIGINATOR     = 

OBJECT_NAME    = ORBVIEW 2 (SEASTAR)
OBJECT_ID      = 1997-037A
CENTER_NAME    = EARTH
REF_FRAME      = TEME
TIME_SYSTEM    = UTC
MEAN_ELEMENT_THEORY = SGP/SGP4

EPOCH          = 2025-11-03T16:05:15.470880
MEAN_MOTION    = 14.35370731
ECCENTRICITY   = .0003221
INCLINATION    = 98.8444
RA_OF_ASC_NODE = 103.7671
ARG_OF_PERICENTER = 78.8867
MEAN_ANOMALY   = 281.2680

EPHEMERIS_TYPE = 0
CLASSIFICATION_TYPE = U
NORAD_CAT_ID   = 24883
ELEMENT_SET_NO = 999
REV_AT_EPOCH   = 49039
BSTAR          = .13981E-3
MEAN_MOTION_DOT = .355E-5
MEAN_MOTION_DDOT = 0

CCSDS_OMM_VERS = 2.0
CREATION_DATE  = 
ORIGINATOR     = 

OBJECT_NAME    = SL-16 R/B
OBJECT_ID      = 1998-043G
CENTER_NAME    = EARTH
REF_FRAME      = TEME
TIME_SYSTEM    = UTC
MEAN_ELEMENT_THEORY = SGP/SGP4

EPOCH          = 2025-11-03T18:52:50.131776
MEAN_MOTION    = 14.26010347
ECCENTRICITY   = .0010334
INCLINATION    = 98.8056
RA_OF_ASC_NODE = 255.4000
ARG_OF_PERICENTER = 25.4558
MEAN_ANOMALY   = 334.7128

EPHEMERIS_TYPE = 0
CLASSIFICATION_TYPE = U
NORAD_CAT_ID   = 25400
ELEMENT_SET_NO = 999
REV_AT_EPOCH   = 42104
BSTAR          = .59689E-4
MEAN_MOTION_DOT = .97E-6
MEAN_MOTION_DDOT = 0

CCSDS_OMM_VERS = 2.0
CREATION_DATE  = 
ORIGINATOR     = 

OBJECT_NAME    = SL-16 R/B
OBJECT_ID      = 1998-045B
CENTER_NAME    = EARTH
REF_FRAME      = TEME
TIME_SYSTEM    = UTC
MEAN_ELEMENT_THEORY = SGP/SGP4

EPOCH          = 2025-11-03T18:35:34.186272
MEAN_MOTION    = 14.16167084
ECCENTRICITY   = .0008982
INCLINATION    = 71.0102
RA_OF_ASC_NODE = 86.3651
ARG_OF_PERICENTER = 229.0231
MEAN_ANOMALY   = 131.0116

EPHEMERIS_TYPE = 0
CLASSIFICATION_TYPE = U
NORAD_CAT_ID   = 25407
ELEMENT_SET_NO = 999
REV_AT_EPOCH   = 40927
BSTAR          = .14873E-3
MEAN_MOTION_DOT = .247E-5
MEAN_MOTION_DDOT = 0

CCSDS_OMM_VERS = 2.0
CREATION_DATE  = 
ORIGINATOR     = 

OBJECT_NAME    = ISS (ZARYA)
OBJECT_ID      = 1998-067A
CENTER_NAME    = EARTH
REF_FRAME      = TEME
TIME_SYSTEM    = UTC
MEAN_ELEMENT_THEORY = SGP/SGP4

EPOCH          = 2025-11-03T12:28:10.587072
MEAN_MOTION    = 15.49724627
ECCENTRICITY   = .0004996
INCLINATION    = 51.6338
RA_OF_ASC_NODE = 336.6423
ARG_OF_PERICENTER = 12.8919
MEAN_ANOMALY   = 347.2196

EPHEMERIS_TYPE = 0
CLASSIFICATION_TYPE = U
NORAD_CAT_ID   = 25544
ELEMENT_SET_NO = 999
REV_AT_EPOCH   = 53677
BSTAR          = .19118E-3
MEAN_MOTION_DOT = .10367E-3
MEAN_MOTION_DDOT = 0

CCSDS_OMM_VERS = 2.0
CREATION_DATE  = 
ORIGINATOR     = 

OBJECT_NAME    = CZ-4B R/B
OBJECT_ID      = 1999-025C
CENTER_NAME    = EARTH
REF_FRAME      = TEME
TIME_SYSTEM    = UTC
MEAN_ELEMENT_THEORY = SGP/SGP4

EPOCH          = 2025-11-02T00:59:36.356064
MEAN_MOTION    = 14.18228157
ECCENTRICITY   = .00369335
INCLINATION    = 98.6834
RA_OF_ASC_NODE = 348.2190
ARG_OF_PERICENTER = 353.7818
MEAN_ANOMALY   = 64.6211

EPHEMERIS_TYPE = 0
CLASSIFICATION_TYPE = U
NORAD_CAT_ID   = 25732
ELEMENT_SET_NO = 999
REV_AT_EPOCH   = 37007
BSTAR          = .66958229E-4
MEAN_MOTION_DOT = .95E-6
MEAN_MOTION_DDOT = 0

CCSDS_OMM_VERS = 2.0
CREATION_DATE  = 
ORIGINATOR     = 

OBJECT_NAME    = OKEAN-O
OBJECT_ID      = 1999-039A
CENTER_NAME    = EARTH
REF_FRAME      = TEME
TIME_SYSTEM    = UTC
MEAN_ELEMENT_THEORY = SGP/SGP4

EPOCH          = 2025-11-02T10:19:29.946144
MEAN_MOTION    = 14.80056834
ECCENTRICITY   = .0001735
INCLINATION    = 97.9663
RA_OF_ASC_NODE = 2.4704
ARG_OF_PERICENTER = 75.1822
MEAN_ANOMALY   = 284.9582

EPHEMERIS_TYPE = 0
CLASSIFICATION_TYPE = U
NORAD_CAT_ID   = 25860
ELEMENT_SET_NO = 999
REV_AT_EPOCH   = 41556
BSTAR          = .12772E-3
MEAN_MOTION_DOT = .915E-5
MEAN_MOTION_DDOT = 0

CCSDS_OMM_VERS = 2.0
CREATION_DATE  = 
ORIGINATOR     = 

OBJECT_NAME    = SL-16 R/B
OBJECT_ID      = 1999-039B
CENTER_NAME    = EARTH
REF_FRAME      = TEME
TIME_SYSTEM    = UTC
MEAN_ELEMENT_THEORY = SGP/SGP4

EPOCH          = 2025-11-02T09:31:15.280032
MEAN_MOTION    = 14.81497610
ECCENTRICITY   = .0013821
INCLINATION    = 98.0186
RA_OF_ASC_NODE = 0.5340
ARG_OF_PERICENTER = 314.2602
MEAN_ANOMALY   = 45.7475

EPHEMERIS_TYPE = 0
CLASSIFICATION_TYPE = U
NORAD_CAT_ID   = 25861
ELEMENT_SET_NO = 999
REV_AT_EPOCH   = 41801
BSTAR          = .10473E-3
MEAN_MOTION_DOT = .768E-5
MEAN_MOTION_DDOT = 0

CCSDS_OMM_VERS = 2.0
CREATION_DATE  = 
ORIGINATOR     = 

OBJECT_NAME    = DELTA 2 R/B
OBJECT_ID      = 1999-041E
CENTER_NAME    = EARTH
REF_FRAME      = TEME
TIME_SYSTEM    = UTC
MEAN_ELEMENT_THEORY = SGP/SGP4

EPOCH          = 2025-11-02T03:15:01.628064
MEAN_MOTION    = 14.11257682
ECCENTRICITY   = .05046882
INCLINATION    = 51.7633
RA_OF_ASC_NODE = 90.5073
ARG_OF_PERICENTER = 332.1011
MEAN_ANOMALY   = 25.3673

EPHEMERIS_TYPE = 0
CLASSIFICATION_TYPE = U
NORAD_CAT_ID   = 25876
ELEMENT_SET_NO = 999
REV_AT_EPOCH   = 34501
BSTAR          = .18505107E-3
MEAN_MOTION_DOT = .908E-5
MEAN_MOTION_DDOT = 0

CCSDS_OMM_VERS = 2.0
CREATION_DATE  = 
ORIGINATOR     = 

OBJECT_NAME    = HELIOS 1B
OBJECT_ID      = 1999-064A
CENTER_NAME    = EARTH
REF_FRAME      = TEME
TIME_SYSTEM    = UTC
MEAN_ELEMENT_THEORY = SGP/SGP4

EPOCH          = 2025-11-03T13:51:29.836224
MEAN_MOTION    = 14.87034214
ECCENTRICITY   = .0002503
INCLINATION    = 98.1760
RA_OF_ASC_NODE = 201.0876
ARG_OF_PERICENTER = 96.1847
MEAN_ANOMALY   = 263.9653

EPHEMERIS_TYPE = 0
CLASSIFICATION_TYPE = U
NORAD_CAT_ID   = 25977
ELEMENT_SET_NO = 999
REV_AT_EPOCH   = 66651
BSTAR          = .24118E-3
MEAN_MOTION_DOT = .2103E-4
MEAN_MOTION_DDOT = 0

CCSDS_OMM_VERS = 2.0
CREATION_DATE  = 
ORIGINATOR     = 

OBJECT_NAME    = TERRA
OBJECT_ID      = 1999-068A
CENTER_NAME    = EARTH
REF_FRAME      = TEME
TIME_SYSTEM    = UTC
MEAN_ELEMENT_THEORY = SGP/SGP4

EPOCH          = 2025-11-03T18:31:26.054976
MEAN_MOTION    = 14.60882226
ECCENTRICITY   = .0001733
INCLINATION    = 97.9806
RA_OF_ASC_NODE = 0.8739
ARG_OF_PERICENTER = 186.5503
MEAN_ANOMALY   = 282.9243

EPHEMERIS_TYPE = 0
CLASSIFICATION_TYPE = U
NORAD_CAT_ID   = 25994
ELEMENT_SET_NO = 999
REV_AT_EPOCH   = 37669
BSTAR          = .12866E-3
MEAN_MOTION_DOT = .585E-5
MEAN_MOTION_DDOT = 0

CCSDS_OMM_VERS = 2.0
CREATION_DATE  = 
ORIGINATOR     = 

OBJECT_NAME    = SL-16 R/B
OBJECT_ID      = 2000-006B
CENTER_NAME    = EARTH
REF_FRAME      = TEME
TIME_SYSTEM    = UTC
MEAN_ELEMENT_THEORY = SGP/SGP4

EPOCH          = 2025-11-03T13:05:35.550240
MEAN_MOTION    = 14.15799518
ECCENTRICITY   = .0016256
INCLINATION    = 71.0042
RA_OF_ASC_NODE = 3.0696
ARG_OF_PERICENTER = 5.5504
MEAN_ANOMALY   = 354.5796

EPHEMERIS_TYPE = 0
CLASSIFICATION_TYPE = U
NORAD_CAT_ID   = 26070
ELEMENT_SET_NO = 999
REV_AT_EPOCH   = 33070
BSTAR          = .17029E-3
MEAN_MOTION_DOT = .287E-5
MEAN_MOTION_DDOT = 0

